STARLINK-31947          
1 59835U 24097A   26067.99842339 -.00000671  00000+0 -14865-4 0  9993
2 59835  42.9964 278.0507 0001067 272.1636  87.9094 15.27562328101815
COSMOS 2588             
1 64095U 25109A   26068.81179522  .00009169  00000+0  32611-3 0  9998
2 64095  72.9704  73.5401 0005019 308.6780  51.3966 15.29122656 44425
